norad_id,name,regime,epoch,line1,line2,inclination,eccentricity,mean_motion,raan,arg_pericenter,mean_anomaly
19751,COSMOS 1989 (ETALON 1),NSO,07363.55819279,1 19751U 89001C   07363.55819279 -.00000064 +00000-0 +10000-3 0 01263\,2 19751 065.2620 304.0689 0015482 218.9913 257.4783 02.13155787147679,65.262,0.0015482,2.13155787,304.0689,218.9913,257.4783
19751,COSMOS 1989 (ETALON 1),NSO,07364.37953735,1 19751U 89001C   07364.37953735 -.00000068  00000-0  10000-3 0  1264\,2 19751 065.2614 304.0411 0015478 219.0060 167.7270 02.13155780147694,65.2614,0.0015478,2.1315578,304.0411,219.006,167.727
19751,COSMOS 1989 (ETALON 1),NSO,07364.59900925,1 19751U 89001C   07364.59900925 -.00000069 +00000-0 +10000-3 0 01273\,2 19751 065.2613 304.0337 0015475 219.0100 336.1359 02.13155773147694,65.2613,0.0015475,2.13155773,304.0337,219.01,336.1359
19751,COSMOS 1989 (ETALON 1),NSO,07365.83307128,1 19751U 89001C   07365.83307128 -.00000074  00000-0  10000-3 0  1273\,2 19751 065.2605 303.9916 0015495 219.0047 203.1058 02.13155754147720,65.2605,0.0015495,2.13155754,303.9916,219.0047,203.1058
19751,COSMOS 1989 (ETALON 1),NSO,08001.73541086,1 19751U 89001C   08001.73541086 -.00000076 +00000-0 +10000-3 0 01297\,2 19751 065.2599 303.9610 0015489 219.0302 175.4959 02.13155746147744,65.2599,0.0015489,2.13155746,303.961,219.0302,175.4959
19751,COSMOS 1989 (ETALON 1),NSO,08002.13583279,1 19751U 89001C   08002.13583279 -.00000075  00000-0  10000-3 0  1280\,2 19751 065.2596 303.9475 0015486 219.0739 122.7179 02.13155733147746,65.2596,0.0015486,2.13155733,303.9475,219.0739,122.7179
19751,COSMOS 1989 (ETALON 1),NSO,08002.91246686,1 19751U 89001C   08002.91246686 -.00000074 +00000-0 +10000-3 0 01306\,2 19751 065.2591 303.9211 0015493 219.0465 358.7003 02.13155732147761,65.2591,0.0015493,2.13155732,303.9211,219.0465,358.7003
19751,COSMOS 1989 (ETALON 1),NSO,08003.22748535,1 19751U 89001C   08003.22748535 -.00000073  00000-0  10000-3 0  1298\,2 19751 065.2588 303.9105 0015483 219.0661 240.4117 02.13155727147774,65.2588,0.0015483,2.13155727,303.9105,219.0661,240.4117
19751,COSMOS 1989 (ETALON 1),NSO,08004.78972888,1 19751U 89001C   08004.78972888 -.00000064  00000-0  10000-3 0  1302\,2 19751 065.2580 303.8572 0015472 219.0116 359.2639 02.13155729147800,65.258,0.0015472,2.13155729,303.8572,219.0116,359.2639
19751,COSMOS 1989 (ETALON 1),NSO,08005.60639380,1 19751U 89001C   08005.60639380 -.00000058 +00000-0 +10000-3 0 01337\,2 19751 065.2574 303.8296 0015460 218.9865 265.9624 02.13155738147821,65.2574,0.001546,2.13155738,303.8296,218.9865,265.9624
19751,COSMOS 1989 (ETALON 1),NSO,08006.08209735,1 19751U 89001C   08006.08209735 -.00000054  00000-0  10000-3 0  1311\,2 19751 065.2571 303.8134 0015459 218.9898 270.9931 02.13155738147831,65.2571,0.0015459,2.13155738,303.8134,218.9898,270.9931
19751,COSMOS 1989 (ETALON 1),NSO,08006.55042993,1 19751U 89001C   08006.55042993 -.00000050 +00000-0 +10000-3 0 01321\,2 19751 065.2567 303.7974 0015454 218.9514 270.4097 02.13155741147840,65.2567,0.0015454,2.13155741,303.7974,218.9514,270.4097
19751,COSMOS 1989 (ETALON 1),NSO,08007.45844639,1 19751U 89001C   08007.45844639 -.00000043  00000-0  10000-3 0  1320\,2 19751 065.2559 303.7667 0015392 218.8556 247.2819 02.13155947147860,65.2559,0.0015392,2.13155947,303.7667,218.8556,247.2819
19751,COSMOS 1989 (ETALON 1),NSO,08007.93185024,1 19751U 89001C   08007.93185024 -.00000039 +00000-0 +10000-3 0 01335\,2 19751 065.2558 303.7503 0015462 218.9412 250.4623 02.13155752147872,65.2558,0.0015462,2.13155752,303.7503,218.9412,250.4623
19751,COSMOS 1989 (ETALON 1),NSO,08008.53287131,1 19751U 89001C   08008.53287131 -.00000036  00000-0  10000-3 0  1331\,2 19751 065.2554 303.7299 0015466 218.9365 351.6651 02.13155764147880,65.2554,0.0015466,2.13155764,303.7299,218.9365,351.6651
19751,COSMOS 1989 (ETALON 1),NSO,08009.93797874,1 19751U 89001C   08009.93797874 -.00000029 +00000-0 +10000-3 0 01361\,2 19751 065.2544 303.6825 0015444 218.9554 349.8651 02.13155788147918,65.2544,0.0015444,2.13155788,303.6825,218.9554,349.8651
19751,COSMOS 1989 (ETALON 1),NSO,08010.76683089,1 19751U 89001C   08010.76683089 -.00000027 +00000-0 +10000-3 0 01364\,2 19751 065.2538 303.6544 0015451 218.9795 265.8667 02.13155800147935,65.2538,0.0015451,2.131558,303.6544,218.9795,265.8667
19751,COSMOS 1989 (ETALON 1),NSO,08011.14263521,1 19751U 89001C   08011.14263521 -.00000027  00000-0  10000-3 0  1351\,2 19751 065.2535 303.6416 0015455 218.9877 194.2346 02.13155803147948,65.2535,0.0015455,2.13155803,303.6416,218.9877,194.2346
19751,COSMOS 1989 (ETALON 1),NSO,08011.19753205,1 19751U 89001C   08011.19753205 -.00000027 +00000-0 +10000-3 0 01360\,2 19751 065.2536 303.6399 0015468 219.0006 236.3474 02.13155807147943,65.2536,0.0015468,2.13155807,303.6399,219.0006,236.3474
19751,COSMOS 1989 (ETALON 1),NSO,08012.19705188,1 19751U 89001C   08012.19705188 -.00000029  00000-0  10000-3 0  1360\,2 19751 065.2529 303.6060 0015472 218.9846 283.3522 02.13155823147961,65.2529,0.0015472,2.13155823,303.606,218.9846,283.3522
19751,COSMOS 1989 (ETALON 1),NSO,08012.74501522,1 19751U 89001C   08012.74501522 -.00000030 +00000-0 +10000-3 0 01370\,2 19751 065.2525 303.5874 0015473 218.9701 343.8502 02.13155826147974,65.2525,0.0015473,2.13155826,303.5874,218.9701,343.8502
19751,COSMOS 1989 (ETALON 1),NSO,08013.17446311,1 19751U 89001C   08013.17446311 -.00000032 +00000-0 +10000-3 0 01385\,2 19751 065.2522 303.5728 0015476 218.9509 313.4092 02.13155829147989,65.2522,0.0015476,2.13155829,303.5728,218.9509,313.4092
19751,COSMOS 1989 (ETALON 1),NSO,08014.50350851,1 19751U 89001C   08014.50350851 -.00000039  00000-0  10000-3 0  1372\,2 19751 065.2525 303.5292 0015524 218.9765 253.2341 02.13155818148017,65.2525,0.0015524,2.13155818,303.5292,218.9765,253.2341
19751,COSMOS 1989 (ETALON 1),NSO,08015.43908874,1 19751U 89001C   08015.43908874 -.00000045 +00000-0 +10000-3 0 01398\,2 19751 065.2504 303.4952 0015458 218.8369 251.2984 02.13155835148033,65.2504,0.0015458,2.13155835,303.4952,218.8369,251.2984
19751,COSMOS 1989 (ETALON 1),NSO,08016.25782277,1 19751U 89001C   08016.25782277 -.00000049  00000-0  10000-3 0  1389\,2 19751 065.2502 303.4678 0015501 218.9612 159.4358 02.13155851148051,65.2502,0.0015501,2.13155851,303.4678,218.9612,159.4358
19751,COSMOS 1989 (ETALON 1),NSO,08017.30318704,1 19751U 89001C   08017.30318704 -.00000053  00000-0  10000-3 0  1392\,2 19751 065.2491 303.4320 0015460 218.8489 241.7149 02.13155852148073,65.2491,0.001546,2.13155852,303.432,218.8489,241.7149
19751,COSMOS 1989 (ETALON 1),NSO,08018.61190993,1 19751U 89001C   08018.61190993 -.00000054  00000-0  10000-3 0  1408\,2 19751 065.2482 303.3873 0015436 218.7709 166.0499 02.13155859148100,65.2482,0.0015436,2.13155859,303.3873,218.7709,166.0499
19751,COSMOS 1989 (ETALON 1),NSO,08019.75288588,1 19751U 89001C   08019.75288588 -.00000052  00000-0  10000-3 0  1411\,2 19751 065.2473 303.3483 0015412 218.7421 321.6130 02.13155851148127,65.2473,0.0015412,2.13155851,303.3483,218.7421,321.613
19751,COSMOS 1989 (ETALON 1),NSO,08020.74484407,1 19751U 89001C   08020.74484407 -.00000049 +00000-0 +10000-3 0 01438\,2 19751 065.2466 303.3145 0015406 218.7751 002.7657 02.13155856148141,65.2466,0.0015406,2.13155856,303.3145,218.7751,2.7657
19751,COSMOS 1989 (ETALON 1),NSO,08021.12537273,1 19751U 89001C   08021.12537273 -.00000048  00000-0  10000-3 0  1429\,2 19751 065.2463 303.3017 0015423 218.7725 294.7688 02.13155846148153,65.2463,0.0015423,2.13155846,303.3017,218.7725,294.7688
19751,COSMOS 1989 (ETALON 1),NSO,08021.55157821,1 19751U 89001C   08021.55157821 -.00000047 +00000-0 +10000-3 0 01433\,2 19751 065.2451 303.2878 0015423 218.7701 261.8180 02.13155642148165,65.2451,0.0015423,2.13155642,303.2878,218.7701,261.818
19751,COSMOS 1989 (ETALON 1),NSO,08022.48087694,1 19751U 89001C   08022.48087694 -.00000046  00000-0  10000-3 0  1435\,2 19751 065.2455 303.2556 0015431 218.7763 254.9197 02.13155838148189,65.2455,0.0015431,2.13155838,303.2556,218.7763,254.9197
19751,COSMOS 1989 (ETALON 1),NSO,08022.95857212,1 19751U 89001C   08022.95857212 -.00000046 +00000-0 +10000-3 0 01449\,2 19751 065.2451 303.2393 0015435 218.7383 261.5198 02.13155830148194,65.2451,0.0015435,2.1315583,303.2393,218.7383,261.5198
19751,COSMOS 1989 (ETALON 1),NSO,08023.51811622,1 19751U 89001C   08023.51811622 -.00000047  00000-0  10000-3 0  1448\,2 19751 065.2447 303.2202 0015446 218.7405 330.8869 02.13155823148204,65.2447,0.0015446,2.13155823,303.2202,218.7405,330.8869
19751,COSMOS 1989 (ETALON 1),NSO,08024.47917082,1 19751U 89001C   08024.47917082 -.00000049 +00000-0 +10000-3 0 01465\,2 19751 065.2441 303.1876 0015458 218.7164 348.3820 02.13155814148222,65.2441,0.0015458,2.13155814,303.1876,218.7164,348.382
19751,COSMOS 1989 (ETALON 1),NSO,08024.84204351,1 19751U 89001C   08024.84204351 -.00000051  00000-0  10000-3 0  1456\,2 19751 065.2439 303.1751 0015443 218.7155 266.8356 02.13155814148234,65.2439,0.0015443,2.13155814,303.1751,218.7155,266.8356
19751,COSMOS 1989 (ETALON 1),NSO,08025.78847098,1 19751U 89001C   08025.78847098 -.00000055 +00000-0 +10000-3 0 01477\,2 19751 065.2432 303.1430 0015469 218.6913 273.1065 02.13155803148258,65.2432,0.0015469,2.13155803,303.143,218.6913,273.1065
19751,COSMOS 1989 (ETALON 1),NSO,08026.21439333,1 19751U 89001C   08026.21439333 -.00000057  00000-0  10000-3 0  1466\,2 19751 065.2428 303.1285 0015466 218.6895 239.9419 02.13155790148266,65.2428,0.0015466,2.1315579,303.1285,218.6895,239.9419
19751,COSMOS 1989 (ETALON 1),NSO,08026.27337025,1 19751U 89001C   08026.27337025 -.00000058 +00000-0 +10000-3 0 01479\,2 19751 065.2428 303.1264 0015448 218.6925 285.1952 02.13155791148263,65.2428,0.0015448,2.13155791,303.1264,218.6925,285.1952
19751,COSMOS 1989 (ETALON 1),NSO,08027.27305355,1 19751U 89001C   08027.27305355 -.00000062  00000-0  10000-3 0  1476\,2 19751 065.2421 303.0926 0015455 218.6776 332.3225 02.13155771148280,65.2421,0.0015455,2.13155771,303.0926,218.6776,332.3225
